OBJECT_NAME,OBJECT_ID,EPOCH,MEAN_MOTION,ECCENTRICITY,INCLINATION,RA_OF_ASC_NODE,ARG_OF_PERICENTER,MEAN_ANOMALY,EPHEMERIS_TYPE,CLASSIFICATION_TYPE,NORAD_CAT_ID,ELEMENT_SET_NO,REV_AT_EPOCH,BSTAR,MEAN_MOTION_DOT,MEAN_MOTION_DDOT
GPS BIIR-5  (PRN 22),2000-040A,2026-07-10T06:17:08.802816,2.00557788,.01205976,54.8491,214.2457,302.6821,81.8231,0,U,26407,999,19041,0,.11E-5,0
GPS BIIR-8  (PRN 16),2003-005A,2026-07-10T03:42:00.163584,2.00559273,.01481924,54.8796,214.0562,53.1533,29.7363,0,U,27663,999,17177,0,.11E-5,0
GPS BIIR-11 (PRN 19),2004-009A,2026-07-10T07:08:01.624128,2.00553861,.01170199,54.8105,274.7528,174.1119,164.7266,0,U,28190,999,16340,0,-.12E-6,0
GPS BIIR-13 (PRN 02),2004-045A,2026-07-10T06:23:58.439040,2.00556809,.01700954,55.1214,323.9670,316.9414,64.8542,0,U,28474,999,15889,0,-.8E-6,0
GPS BIIRM-1 (PRN 17),2005-038A,2026-07-10T07:05:53.898144,2.00564004,.01281687,54.8594,272.2441,296.3525,70.9409,0,U,28874,999,15230,0,-.6E-7,0
INMARSAT 4-F2 (SOUTHPAN/PRN 122),2005-044A,2026-07-09T19:27:56.021184,1.00271241,.00028981,5.1235,43.6494,59.0214,260.5450,0,U,28899,999,7574,0,-.253E-5,0
GPS BIIRM-2 (PRN 31),2006-042A,2026-07-09T02:49:39.464832,2.00568543,.01070153,54.7126,150.4682,54.9780,80.6146,0,U,29486,999,14483,0,.66E-6,0
GPS BIIRM-3 (PRN 12),2006-052A,2026-07-09T20:31:08.284800,2.00559354,.00848119,54.9328,213.1076,90.9838,270.0514,0,U,29601,999,14386,0,.111E-5,0
GPS BIIRM-4 (PRN 15),2007-047A,2026-07-09T03:55:06.157344,2.00554162,.01675879,54.1110,79.1599,87.8540,274.1065,0,U,32260,999,13725,0,-.4E-6,0
COSMOS 2433 (720),2007-052A,2026-07-08T23:17:51.480672,2.13104372,.00032831,65.5635,315.2012,202.4684,157.5248,0,U,32275,999,14552,0,-.55E-6,0
COSMOS 2432 (719),2007-052B,2026-07-10T04:02:47.897088,2.13103214,.00074676,65.5788,315.2892,323.9576,178.8039,0,U,32276,999,14557,0,-.6E-6,0
GPS BIIRM-5 (PRN 29),2007-062A,2026-07-09T11:52:43.795776,2.00561271,.00360153,55.0139,273.2551,167.1073,200.1944,0,U,32384,999,13596,0,-.12E-6,0
COSMOS 2434 (721),2007-065A,2026-07-10T04:17:51.767232,2.13101374,.00012665,64.3199,191.1401,327.2015,129.5148,0,U,32393,999,14426,0,.121E-5,0
COSMOS 2436 (723),2007-065C,2026-07-10T07:48:32.984064,2.13100111,.00172996,64.3284,191.2075,353.5883,347.5855,0,U,32395,999,14421,0,.12E-5,0
GPS BIIRM-6 (PRN 07),2008-012A,2026-07-10T01:40:17.156064,2.00572959,.02116365,54.4996,149.0107,248.1017,109.6111,0,U,32711,999,13421,0,.51E-6,0
GPS BIIRM-8 (PRN 05),2009-043A,2026-07-10T05:38:13.091136,2.00552975,.00537608,56.2247,26.5474,84.1723,43.1557,0,U,35752,999,12382,0,-.53E-6,0
COSMOS 2456 (730),2009-070A,2026-07-09T15:08:13.476192,2.13103847,.00037909,65.0240,70.2070,337.3847,216.9243,0,U,36111,999,12890,0,-.25E-6,0
COSMOS 2457 (733),2009-070B,2026-07-09T10:46:13.196640,2.13101278,.00038475,65.0094,70.0567,122.9338,58.9933,0,U,36112,999,12890,0,-.25E-6,0
COSMOS 2460 (732),2010-007C,2026-07-08T23:18:34.633152,2.13101759,.00018107,65.4066,313.7300,135.0435,42.4983,0,U,36402,999,12719,0,-.55E-6,0
GPS BIIF-1  (PRN 25),2010-022A,2026-07-09T11:31:40.797120,2.00563450,.01266153,54.2690,207.6640,66.1496,355.9932,0,U,36585,999,11804,0,.113E-5,0
BEIDOU-2 IGSO-1 (C06),2010-036A,2026-07-07T14:57:11.145024,1.00266308,.0059224,54.3062,162.7756,225.1869,229.2421,0,U,36828,999,5830,0,-.58E-6,0
BEIDOU-2 G4 (C04),2010-057A,2026-07-09T21:15:01.859616,1.00270334,.00054051,3.6994,68.8084,185.0659,152.6506,0,U,37210,999,5751,0,-.104E-5,0
BEIDOU-2 IGSO-2 (C07),2010-068A,2026-07-09T15:52:30.256320,1.00275795,.00567631,47.5066,271.5534,213.3417,149.1450,0,U,37256,999,5702,0,-.201E-5,0
BEIDOU-2 IGSO-3 (C08),2011-013A,2026-07-09T12:26:44.979360,1.00261852,.00351984,62.4382,39.9419,183.2390,357.7550,0,U,37384,999,5588,0,-.172E-5,0
GSAT-8 (GAGAN/PRN 127),2011-022A,2026-07-10T05:18:45.811584,1.00271522,.00026475,2.1876,81.5454,165.7862,175.5805,0,U,37605,999,5344,0,.93E-6,0
BEIDOU-2 IGSO-4 (C09),2011-038A,2026-07-09T21:45:21.777120,1.00280644,.01601787,54.6042,165.4715,231.4223,311.4635,0,U,37763,999,5487,0,.37E-6,0
GSAT0101 (GALILEO-PFM),2011-060A,2026-07-08T13:14:56.643936,1.70475585,.0002415,56.9869,341.1826,60.6868,299.3373,0,U,37846,999,9148,0,-.74E-6,0
GSAT0102 (GALILEO-FM2),2011-060B,2026-07-08T11:27:00.571680,1.70475862,.00024239,56.9877,341.1851,11.7755,347.8886,0,U,37847,999,9148,0,-.74E-6,0
COSMOS 2476 (744),2011-064A,2026-07-10T01:01:44.907168,2.13103819,.00222715,65.2823,72.1003,236.4101,182.4236,0,U,37867,999,11425,0,-.24E-6,0
COSMOS 2477 (745),2011-064B,2026-07-10T08:21:18.182304,2.13103071,.00192576,65.2891,72.1697,237.2409,236.0411,0,U,37868,999,11425,0,-.24E-6,0
COSMOS 2475 (743),2011-064C,2026-07-08T04:12:39.803616,2.13101995,.0025048,65.2947,72.2646,251.6541,309.8644,0,U,37869,999,11421,0,-.23E-6,0
